NORAD_CAT_ID,OBJECT_NAME,OBJECT_TYPE,EPOCH,MEAN_MOTION,ECCENTRICITY,INCLINATION,RA_OF_ASC_NODE,ARG_OF_PERICENTER,MEAN_ANOMALY,BSTAR,MEAN_MOTION_DOT,MEAN_MOTION_DDOT,TLE_LINE0,TLE_LINE1,TLE_LINE2,SEMIMAJOR_AXIS,PERIOD,APOGEE,PERIGEE,DECAYED
55302.0,STARLINK-5321,PAYLOAD,2023-09-13 06:00:02,14.98333948,0.0003146,70.0017,154.8658,273.8102,167.8936,-0.00043613,-5.293e-05,0.0,0 STARLINK-5321,1 55302U 23010AK  23256.25002315 -.00005293  00000-0 -43613-3 0  9998,2 55302  70.0017 154.8658 0003146 273.8102 167.8936 14.98333948 36894,6950.181,96.107,574.232,569.859,0.0
55302.0,STARLINK-5321,PAYLOAD,2023-09-13 14:00:01,14.98293778,0.0003137,70.0018,154.0256,267.2596,171.8733,0.007608,0.00091798,0.0,0 STARLINK-5321,1 55302U 23010AK  23256.58334491  .00091798  00000-0  76080-2 0  9993,2 55302  70.0018 154.0256 0003137 267.2596 171.8733 14.98293778  5831,6950.305,96.109,574.35,569.99,0.0
55302.0,STARLINK-5321,PAYLOAD,2023-09-13 22:00:00,14.98364764,0.0003157,70.0021,153.1851,271.2846,165.3102,-0.0045995,-0.00054598,0.0,0 STARLINK-5321,1 55302U 23010AK  23256.91667824 -.00054598  00000-0 -45995-2 0  9999,2 55302  70.0021 153.1851 0003157 271.2846 165.3102 14.98364764  5787,6950.085,96.105,574.145,569.756,0.0
55302.0,STARLINK-5321,PAYLOAD,2023-09-14 14:00:01,14.98279365,0.0003151,70.0017,151.5042,269.3425,162.2921,0.0068205,0.00082142,0.0,0 STARLINK-5321,1 55302U 23010AK  23257.58335648  .00082142  00000-0  68205-2 0  9992,2 55302  70.0017 151.5042 0003151 269.3425 162.2921 14.98279365 37097,6950.349,96.11,574.405,570.024,0.0
55302.0,STARLINK-5321,PAYLOAD,2023-09-14 22:00:00,14.98346559,0.0003166,70.0018,150.6638,271.8043,157.2245,-0.0032238,-0.00038366,0.0,0 STARLINK-5321,1 55302U 23010AK  23257.91667824 -.00038366  00000-0 -32238-2 0  9991,2 55302  70.0018 150.6638 0003166 271.8043 157.2245 14.98346559  5806,6950.142,96.106,574.207,569.806,0.0
55302.0,STARLINK-5321,PAYLOAD,2023-09-15 02:30:00,14.98325925,0.0003078,70.0002,150.1908,269.726,90.3546,-1.6554e-05,-2.9e-06,0.0,0 STARLINK-5321,1 55302U 23010AK  23258.10417340 -.00000290  00000-0 -16554-4 0  9999,2 55302  70.0002 150.1908 0003078 269.7260  90.3546 14.98325925 37162,6950.205,96.107,574.21,569.931,0.0
55302.0,STARLINK-5321,PAYLOAD,2023-09-15 18:31:20,14.98331512,0.0003223,69.9999,148.5075,272.562,87.517,1.2481e-05,5.6e-07,0.0,0 STARLINK-5321,1 55302U 23010AK  23258.77176867  .00000056  00000-0  12481-4 0  9991,2 55302  69.9999 148.5075 0003223 272.5620  87.5170 14.98331512 37265,6950.188,96.107,574.293,569.813,0.0
55302.0,STARLINK-5321,PAYLOAD,2023-09-16 02:32:00,14.98337319,0.0003151,70.0,147.6659,271.4843,88.5955,7.4883e-05,8.01e-06,0.0,0 STARLINK-5321,1 55302U 23010AK  23259.10556250  .00000801  00000-0  74883-4 0  9999,2 55302  70.0000 147.6659 0003151 271.4843  88.5955 14.98337319 37313,6950.17,96.107,574.225,569.845,0.0
55302.0,STARLINK-5321,PAYLOAD,2023-09-16 18:33:21,14.98327305,0.0003085,70.0008,145.9845,273.1584,86.9222,4.8491e-05,4.86e-06,0.0,0 STARLINK-5321,1 55302U 23010AK  23259.77316759  .00000486  00000-0  48491-4 0  9995,2 55302  70.0008 145.9845 0003085 273.1584  86.9222 14.98327305 37410,6950.201,96.107,574.21,569.922,0.0
55302.0,STARLINK-5321,PAYLOAD,2023-09-17 02:34:02,14.98329002,0.0003206,69.9998,145.1409,273.5229,86.5563,6.4238e-05,6.74e-06,0.0,0 STARLINK-5321,1 55302U 23010AK  23260.10696772  .00000674  00000-0  64238-4 0  9996,2 55302  69.9998 145.1409 0003206 273.5229  86.5563 14.98329002 37777,6950.196,96.107,574.289,569.833,0.0
55302.0,STARLINK-5321,PAYLOAD,2023-09-17 18:35:22,14.98332724,0.0003205,69.9998,143.4578,274.5396,85.5397,-5.3546e-05,-7.32e-06,0.0,0 STARLINK-5321,1 55302U 23010AK  23260.77456899 -.00000732  00000-0 -53546-4 0  9990,2 55302  69.9998 143.4578 0003205 274.5396  85.5397 14.98332724 37566,6950.184,96.107,574.277,569.822,0.0
55302.0,STARLINK-5321,PAYLOAD,2023-09-18 02:36:02,14.98340136,0.0003167,70.0,142.6162,274.75,85.3298,2.5894e-05,2.16e-06,0.0,0 STARLINK-5321,1 55302U 23010AK  23261.10836175  .00000216  00000-0  25894-4 0  9997,2 55302  70.0000 142.6162 0003167 274.7500  85.3298 14.98340136 37619,6950.162,96.106,574.228,569.825,0.0
55302.0,STARLINK-5321,PAYLOAD,2023-09-18 17:01:15,14.98325717,0.0002992,70.0005,141.1021,274.6304,85.4513,5.9251e-05,6.14e-06,0.0,0 STARLINK-5321,1 55302U 23010AK  23261.70920736  .00000614  00000-0  59251-4 0  9996,2 55302  70.0005 141.1021 0002992 274.6304  85.4513 14.98325717 37707,6950.206,96.107,574.151,569.992,0.0
55302.0,STARLINK-5321,PAYLOAD,2023-09-18 20:13:31,14.9832637,0.0003037,70.0005,140.7655,275.5248,84.5564,4.9087e-05,4.93e-06,0.0,0 STARLINK-5321,1 55302U 23010AK  23261.84272748  .00000493  00000-0  49087-4 0  9995,2 55302  70.0005 140.7655 0003037 275.5248  84.5564 14.98326370 38032,6950.204,96.107,574.18,569.958,0.0
55302.0,STARLINK-5321,PAYLOAD,2023-09-19 18:39:23,14.9833337,0.0002712,70.0005,138.4095,265.9211,94.1638,2.6878e-05,2.28e-06,0.0,0 STARLINK-5321,1 55302U 23010AK  23262.77736080  .00000228  00000-0  26878-4 0  9991,2 55302  70.0005 138.4095 0002712 265.9211  94.1638 14.98333370 37863,6950.182,96.107,573.932,570.163,0.0
55302.0,STARLINK-5321,PAYLOAD,2023-09-20 09:04:36,14.98354519,0.0002583,70.0004,136.8924,279.5217,80.565,-0.00051136,-6.193e-05,0.0,0 STARLINK-5321,1 55302U 23010AK  23263.37819935 -.00006193  00000-0 -51136-3 0  9992,2 55302  70.0004 136.8924 0002583 279.5217  80.5650 14.98354519 38264,6950.117,96.105,573.777,570.187,0.0
55302.0,STARLINK-5321,PAYLOAD,2023-09-20 18:41:26,14.98314789,0.000289,70.0008,135.8859,261.2952,98.788,-0.00019914,-2.467e-05,0.0,0 STARLINK-5321,1 55302U 23010AK  23263.77877773 -.00002467  00000-0 -19914-3 0  9998,2 55302  70.0008 135.8859 0002890 261.2952  98.7880 14.98314789 38013,6950.24,96.108,574.114,570.096,0.0
55302.0,STARLINK-5321,PAYLOAD,2023-09-20 21:53:42,14.98316342,0.0002681,70.0007,135.5487,251.889,108.1977,-0.00017843,-2.22e-05,0.0,0 STARLINK-5321,1 55302U 23010AK  23263.91229679 -.00002220  00000-0 -17843-3 0  9996,2 55302  70.0007 135.5487 0002681 251.8890 108.1977 14.98316342 38346,6950.235,96.108,573.963,570.237,0.0
55302.0,STARLINK-5321,PAYLOAD,2023-09-21 01:05:58,14.9831794,0.0002701,70.0007,135.2123,251.6603,108.4262,-0.00015682,-1.963e-05,0.0,0 STARLINK-5321,1 55302U 23010AK  23264.04581597 -.00001963  00000-0 -15682-3 0  9993,2 55302  70.0007 135.2123 0002701 251.6603 108.4262 14.98317940 38360,6950.23,96.108,573.972,570.218,0.0
55302.0,STARLINK-5321,PAYLOAD,2023-09-21 18:43:27,14.98318872,0.0002977,69.9998,133.3584,270.3488,89.733,-0.00011467,-1.461e-05,0.0,0 STARLINK-5321,1 55302U 23010AK  23264.78017912 -.00001461  00000-0 -11467-3 0  9999,2 55302  69.9998 133.3584 0002977 270.3488  89.7330 14.98318872 38160,6950.227,96.108,574.161,570.023,0.0
55302.0,STARLINK-5321,PAYLOAD,2023-09-21 21:55:43,14.98319831,0.0002955,70.0001,133.0221,269.1788,90.9033,-9.1632e-05,-1.186e-05,0.0,0 STARLINK-5321,1 55302U 23010AK  23264.91369879 -.00001186  00000-0 -91632-4 0  9993,2 55302  70.0001 133.0221 0002955 269.1788  90.9033 14.98319831 38494,6950.224,96.108,574.143,570.036,0.0
55302.0,STARLINK-5321,PAYLOAD,2023-09-22 02:44:07,14.98322843,0.0002917,70.0002,132.5167,267.8135,92.269,-7.7384e-05,-1.016e-05,0.0,0 STARLINK-5321,1 55302U 23010AK  23265.11397770 -.00001016  00000-0 -77384-4 0  9997,2 55302  70.0002 132.5167 0002917 267.8135  92.2690 14.98322843 38522,6950.215,96.107,574.107,570.053,0.0
55302.0,STARLINK-5321,PAYLOAD,2023-09-22 18:45:28,14.98321264,0.000312,69.9996,130.8332,266.2931,93.7871,0.00017639,2.012e-05,0.0,0 STARLINK-5321,1 55302U 23010AK  23265.78157429  .00002012  00000-0  17639-3 0  9996,2 55302  69.9996 130.8332 0003120 266.2931  93.7871 14.98321264 38310,6950.22,96.108,574.253,569.916,0.0
55302.0,STARLINK-5321,PAYLOAD,2023-09-22 21:57:44,14.98323433,0.0003073,69.9993,130.4965,265.0981,94.9827,0.00019341,2.215e-05,0.0,0 STARLINK-5321,1 55302U 23010AK  23265.91509355  .00002215  00000-0  19341-3 0  9997,2 55302  69.9993 130.4965 0003073 265.0981  94.9827 14.98323433 38644,6950.213,96.107,574.214,569.942,0.0
55302.0,STARLINK-5321,PAYLOAD,2023-09-23 01:10:00,14.98324297,0.0003045,69.9998,130.1603,265.0727,95.0084,0.00024599,2.843e-05,0.0,0 STARLINK-5321,1 55302U 23010AK  23266.04861179  .00002843  00000-0  24599-3 0  9995,2 55302  69.9998 130.1603 0003045 265.0727  95.0084 14.98324297 38660,6950.211,96.107,574.192,569.959,0.0
55302.0,STARLINK-5321,PAYLOAD,2023-09-23 18:47:28,14.98331695,0.0003195,69.9992,128.3085,267.3567,92.7226,0.00016521,1.879e-05,0.0,0 STARLINK-5321,1 55302U 23010AK  23266.78296872  .00001879  00000-0  16521-3 0  9992,2 55302  69.9992 128.3085 0003195 267.3567  92.7226 14.98331695 38460,6950.188,96.107,574.273,569.832,0.0
55302.0,STARLINK-5321,PAYLOAD,2023-09-24 01:12:00,14.98337776,0.0003043,69.9995,127.6359,263.4054,96.6758,0.00015642,1.774e-05,0.0,0 STARLINK-5321,1 55302U 23010AK  23267.05000414  .00001774  00000-0  15642-3 0  9995,2 55302  69.9995 127.6359 0003043 263.4054  96.6758 14.98337776 38817,6950.169,96.107,574.149,569.919,0.0
55302.0,STARLINK-5321,PAYLOAD,2023-09-24 18:49:29,14.98344563,0.0002715,70.0001,125.7859,252.5403,107.5459,-0.00022221,-2.744e-05,0.0,0 STARLINK-5321,1 55302U 23010AK  23267.78436823 -.00002744  00000-0 -22221-3 0  9993,2 55302  70.0001 125.7859 0002715 252.5403 107.5459 14.98344563 38614,6950.148,96.106,573.9,570.126,0.0
55302.0,STARLINK-5321,PAYLOAD,2023-09-24 22:01:45,14.98333049,0.0002793,70.0,125.4493,252.1253,107.9602,-3.1734e-05,-4.72e-06,0.0,0 STARLINK-5321,1 55302U 23010AK  23267.91788913 -.00000472  00000-0 -31734-4 0  9994,2 55302  70.0000 125.4493 0002793 252.1253 107.9602 14.98333049 38946,6950.183,96.107,573.99,570.107,0.0
55302.0,STARLINK-5321,PAYLOAD,2023-09-25 07:38:33,14.98347149,0.000284,70.0002,124.4393,254.7446,105.3399,-0.00026797,-3.29e-05,0.0,0 STARLINK-5321,1 55302U 23010AK  23268.31844446 -.00003290  00000-0 -26797-3 0  9996,2 55302  70.0002 124.4393 0002840 254.7446 105.3399 14.98347149 39000,6950.14,96.106,573.979,570.031,0.0
